[Satellite]
VERSION=1.1
NAME=ASTEX 1
NICKNAME=ASTEX 1
TLE1=1 05560U 71089A   20158.11648952  .00000098  00000-0  26656-4 0  9999
TLE2=2 05560  92.7044 193.2655 0014989 335.4655  24.5835 14.48070527558123
STATUS=0
